{
  "type": "FeatureCollection",
  "features": [
    {
      "type": "Feature",
      "properties": {
        "norad_id": 29930,
        "name": "FENGYUN 1C DEB",
        "group": "fengyun-1c-debris",
        "lat": 70.57265667583812,
        "lon": -147.3940642045511,
        "alt_km": 735.9581388554934,
        "timestamp": "2025-12-22T23:36:20.985807+00:00",
        "meta_object_name": "FENGYUN 1C DEB",
        "meta_object_id": "1999-025JC",
        "meta_epoch": "2025-12-22T05:14:33.512352",
        "meta_mean_motion": 14.2082809,
        "meta_eccentricity": 0.01643264,
        "meta_inclination": 99.044,
        "meta_ra_of_asc_node": 238.6688,
        "meta_arg_of_pericenter": 26.6031,
        "meta_mean_anomaly": 93.3148,
        "meta_ephemeris_type": 0,
        "meta_classification_type": "U",
        "meta_norad_cat_id": 29930,
        "meta_element_set_no": 999,
        "meta_rev_at_epoch": 98025,
        "meta_bstar": 0.00024352986,
        "meta_mean_motion_dot": 5.56e-06,
        "meta_mean_motion_ddot": 0,
        "tle_line1": "1 29930U 99025JC  25356.21844343  .00000556  00000+0  24353-3 0  9993",
        "tle_line2": "2 29930  99.0440 238.6688 0164326  26.6031  93.3148 14.20828090980258"
      },
      "geometry": {
        "type": "Point",
        "coordinates": [
          -147.3940642045511,
          70.57265667583812
        ]
      }
    },
    {
      "type": "Feature",
      "properties": {
        "norad_id": 29931,
        "name": "FENGYUN 1C DEB",
        "group": "fengyun-1c-debris",
        "lat": 9.849889895489138,
        "lon": -146.4158750129557,
        "alt_km": 887.4767322673952,
        "timestamp": "2025-12-22T23:36:20.985817+00:00",
        "meta_object_name": "FENGYUN 1C DEB",
        "meta_object_id": "1999-025JD",
        "meta_epoch": "2025-12-22T09:11:29.902272",
        "meta_mean_motion": 14.03903008,
        "meta_eccentricity": 0.00324246,
        "meta_inclination": 98.8591,
        "meta_ra_of_asc_node": 31.4471,
        "meta_arg_of_pericenter": 67.5293,
        "meta_mean_anomaly": 308.2849,
        "meta_ephemeris_type": 0,
        "meta_classification_type": "U",
        "meta_norad_cat_id": 29931,
        "meta_element_set_no": 999,
        "meta_rev_at_epoch": 96948,
        "meta_bstar": 0.00028104891,
        "meta_mean_motion_dot": 4.03e-06,
        "meta_mean_motion_ddot": 0,
        "tle_line1": "1 29931U 99025JD  25356.38298498  .00000403  00000+0  28105-3 0  9996",
        "tle_line2": "2 29931  98.8591  31.4471 0032424  67.5293 308.2849 14.03903008969481"
      },
      "geometry": {
        "type": "Point",
        "coordinates": [
          -146.4158750129557,
          9.849889895489138
        ]
      }
    },
    {
      "type": "Feature",
      "properties": {
        "norad_id": 29932,
        "name": "FENGYUN 1C DEB",
        "group": "fengyun-1c-debris",
        "lat": 15.33791842752646,
        "lon": 4.977763854925579,
        "alt_km": 812.1330365087133,
        "timestamp": "2025-12-22T23:36:20.985828+00:00",
        "meta_object_name": "FENGYUN 1C DEB",
        "meta_object_id": "1999-025JE",
        "meta_epoch": "2025-12-21T19:31:54.740064",
        "meta_mean_motion": 14.16772977,
        "meta_eccentricity": 0.00382906,
        "meta_inclination": 98.6336,
        "meta_ra_of_asc_node": 6.231,
        "meta_arg_of_pericenter": 44.9038,
        "meta_mean_anomaly": 128.1093,
        "meta_ephemeris_type": 0,
        "meta_classification_type": "U",
        "meta_norad_cat_id": 29932,
        "meta_element_set_no": 999,
        "meta_rev_at_epoch": 97712,
        "meta_bstar": 0.00024459356,
        "meta_mean_motion_dot": 4.5e-06,
        "meta_mean_motion_ddot": 0,
        "tle_line1": "1 29932U 99025JE  25355.81382801  .00000450  00000+0  24459-3 0  9996",
        "tle_line2": "2 29932  98.6336   6.2310 0038290  44.9038 128.1093 14.16772977977125"
      },
      "geometry": {
        "type": "Point",
        "coordinates": [
          4.977763854925579,
          15.33791842752646
        ]
      }
    },
    {
      "type": "Feature",
      "properties": {
        "norad_id": 29933,
        "name": "FENGYUN 1C DEB",
        "group": "fengyun-1c-debris",
        "lat": 68.37902293890052,
        "lon": -56.28635682470994,
        "alt_km": 670.3306732043993,
        "timestamp": "2025-12-22T23:36:20.985837+00:00",
        "meta_object_name": "FENGYUN 1C DEB",
        "meta_object_id": "1999-025JF",
        "meta_epoch": "2025-12-21T18:19:19.894944",
        "meta_mean_motion": 14.66151048,
        "meta_eccentricity": 0.00052877,
        "meta_inclination": 98.749,
        "meta_ra_of_asc_node": 99.5504,
        "meta_arg_of_pericenter": 295.4085,
        "meta_mean_anomaly": 217.9747,
        "meta_ephemeris_type": 0,
        "meta_classification_type": "U",
        "meta_norad_cat_id": 29933,
        "meta_element_set_no": 999,
        "meta_rev_at_epoch": 98637,
        "meta_bstar": 0.0024709265,
        "meta_mean_motion_dot": 0.00013558,
        "meta_mean_motion_ddot": 0,
        "tle_line1": "1 29933U 99025JF  25355.76342471  .00013558  00000+0  24709-2 0  9990",
        "tle_line2": "2 29933  98.7490  99.5504 0005287 295.4085 217.9747 14.66151048986378"
      },
      "geometry": {
        "type": "Point",
        "coordinates": [
          -56.28635682470994,
          68.37902293890052
        ]
      }
    },
    {
      "type": "Feature",
      "properties": {
        "norad_id": 29934,
        "name": "FENGYUN 1C DEB",
        "group": "fengyun-1c-debris",
        "lat": -39.95011109510494,
        "lon": 52.214492044322775,
        "alt_km": 697.5454410284328,
        "timestamp": "2025-12-22T23:36:20.985847+00:00",
        "meta_object_name": "FENGYUN 1C DEB",
        "meta_object_id": "1999-025JG",
        "meta_epoch": "2025-12-22T13:56:58.862112",
        "meta_mean_motion": 14.63871811,
        "meta_eccentricity": 0.01010028,
        "meta_inclination": 98.9025,
        "meta_ra_of_asc_node": 44.2358,
        "meta_arg_of_pericenter": 221.862,
        "meta_mean_anomaly": 137.4826,
        "meta_ephemeris_type": 0,
        "meta_classification_type": "U",
        "meta_norad_cat_id": 29934,
        "meta_element_set_no": 999,
        "meta_rev_at_epoch": 99916,
        "meta_bstar": 0.00084472525,
        "meta_mean_motion_dot": 4.695e-05,
        "meta_mean_motion_ddot": 0,
        "tle_line1": "1 29934U 99025JG  25356.58123683  .00004695  00000+0  84473-3 0  9991",
        "tle_line2": "2 29934  98.9025  44.2358 0101002 221.8620 137.4826 14.63871811999168"
      },
      "geometry": {
        "type": "Point",
        "coordinates": [
          52.214492044322775,
          -39.95011109510494
        ]
      }
    },
    {
      "type": "Feature",
      "properties": {
        "norad_id": 29935,
        "name": "FENGYUN 1C DEB",
        "group": "fengyun-1c-debris",
        "lat": 54.285189108098066,
        "lon": 46.698947661835916,
        "alt_km": 910.7259010345706,
        "timestamp": "2025-12-22T23:36:20.985857+00:00",
        "meta_object_name": "FENGYUN 1C DEB",
        "meta_object_id": "1999-025JH",
        "meta_epoch": "2025-12-21T15:50:44.108736",
        "meta_mean_motion": 14.14242767,
        "meta_eccentricity": 0.0150638,
        "meta_inclination": 98.4602,
        "meta_ra_of_asc_node": 57.3925,
        "meta_arg_of_pericenter": 190.414,
        "meta_mean_anomaly": 332.424,
        "meta_ephemeris_type": 0,
        "meta_classification_type": "U",
        "meta_norad_cat_id": 29935,
        "meta_element_set_no": 999,
        "meta_rev_at_epoch": 97668,
        "meta_bstar": 9.4757e-05,
        "meta_mean_motion_dot": 1.61e-06,
        "meta_mean_motion_ddot": 0,
        "tle_line1": "1 29935U 99025JH  25355.66023274  .00000161  00000+0  94757-4 0  9996",
        "tle_line2": "2 29935  98.4602  57.3925 0150638 190.4140 332.4240 14.14242767976684"
      },
      "geometry": {
        "type": "Point",
        "coordinates": [
          46.698947661835916,
          54.285189108098066
        ]
      }
    },
    {
      "type": "Feature",
      "properties": {
        "norad_id": 29936,
        "name": "FENGYUN 1C DEB",
        "group": "fengyun-1c-debris",
        "lat": 27.590935154509733,
        "lon": -65.03530971449703,
        "alt_km": 691.2046085727152,
        "timestamp": "2025-12-22T23:36:20.985868+00:00",
        "meta_object_name": "FENGYUN 1C DEB",
        "meta_object_id": "1999-025JJ",
        "meta_epoch": "2025-12-22T07:50:39.807168",
        "meta_mean_motion": 14.35323299,
        "meta_eccentricity": 0.01144628,
        "meta_inclination": 98.6564,
        "meta_ra_of_asc_node": 109.7397,
        "meta_arg_of_pericenter": 158.7193,
        "meta_mean_anomaly": 201.8809,
        "meta_ephemeris_type": 0,
        "meta_classification_type": "U",
        "meta_norad_cat_id": 29936,
        "meta_element_set_no": 999,
        "meta_rev_at_epoch": 99068,
        "meta_bstar": 0.0001691043,
        "meta_mean_motion_dot": 4.76e-06,
        "meta_mean_motion_ddot": 0,
        "tle_line1": "1 29936U 99025JJ  25356.32684962  .00000476  00000+0  16910-3 0  9991",
        "tle_line2": "2 29936  98.6564 109.7397 0114462 158.7193 201.8809 14.35323299990688"
      },
      "geometry": {
        "type": "Point",
        "coordinates": [
          -65.03530971449703,
          27.590935154509733
        ]
      }
    }
  ]
}